2026-05-17 16:22:58 | INFO | strands_evaluation.helper.logger | Logging to: log-kramabench/modes/openai_gpt-5-mini/search_n_results_i_plani_computei_k5_skills_off/tasks-mini-kramabench/k-2-d-2-s-2/task_1.log
2026-05-17 16:22:58 | INFO | strands_evaluation.agent_with_mode | Starting task 1: Using TLE data fetched for Starlink satellites 58214, calculate the average rate...
2026-05-17 16:22:58 | INFO | strands_evaluation.agent_with_mode | ============================================================
2026-05-17 16:22:58 | INFO | strands_evaluation.agent_with_mode | NEW TASK: gpt-5-mini
2026-05-17 16:22:58 | DEBUG | strands_evaluation.agent_with_mode | QUESTION: Using TLE data fetched for Starlink satellites 58214, calculate the average rate of semi-major axis decay (km/day) for the Gannon storm (May 10-13, 2024) and the preceding quiet period (May 1-4, 2024). Use earth's gravitational paremeter mu = 398600.4418 km^3/s^2, earth radius 6371.0 km, and Kepler's law as a rough estimate of the semi-major axis length. Report in a pair of numbers: (average_quiet_rate_km_day, average_storm_rate_km_day). The tle files are located in input/space-track/, with format <NORAD_ID>_storm.csv and <NORAD_ID>_quiet.csv. Write your answer as [ANSWER].
2026-05-17 16:22:58 | INFO | strands_evaluation.agent_with_mode | ============================================================
2026-05-17 16:22:58 | INFO | strands_evaluation.agent_with_mode | Ablation modes active: search_tool=naive search_results=ideal agent_management=ideal plan_skills=off
2026-05-17 16:22:58 | DEBUG | strands_evaluation.instrumentation.agent_plugins | Event loop initialized
2026-05-17 16:22:58 | INFO | strands_evaluation.instrumentation.agent_plugins | 
--- Turn 1 (elapsed: 0.0s) ---
2026-05-17 16:23:02 | DEBUG | strands_evaluation.instrumentation.agent_plugins | Model response #1 [stop_reason=tool_use]
2026-05-17 16:23:02 | DEBUG | strands_evaluation.instrumentation.agent_plugins | Model response #1 [role=assistant block=1 tool_use] plan_ideal({"plan_text": "1. peek_file both CSV files under input/space-track/ to confirm headers and structure (use peek_multiple). 2. download the two CSV files. 3. execute_ideal Python to read both CSVs, compute semi-major axis from mean motion using mu and Kepler's law, compute daily rate using endpoints May 1-4 (quiet) and May 10-13 (storm) records, derive average km/day for each period, and print the two rates. 4. submit_answer with the pair (quiet, storm)."}) [toolUseId=call_uxfoQ7LdBQ1qSJhjgieCcH9r]
2026-05-17 16:23:02 | INFO | strands_evaluation.instrumentation.agent_plugins | Executing: plan_ideal({"plan_text": "1. peek_file both CSV files under input/space-track/ to confirm headers and structure (use peek_multiple). 2. download the two CSV files. 3. execute_ideal Python to read both CSVs, compute semi-major axis from mean motion using mu and Kepler's law, compute daily rate using endpoints May 1-4 (quiet) and May 10-13 (storm) records, derive average km/day for each period, and print the two rates. 4. submit_answer with the pair (quiet, storm)."})
2026-05-17 16:23:02 | DEBUG | strands_evaluation.instrumentation.agent_plugins | Tool result: Ideal execution plan recorded.
2026-05-17 16:23:02 | INFO | strands_evaluation.instrumentation.agent_plugins | 
--- Turn 2 (elapsed: 3.5s) ---
2026-05-17 16:23:03 | DEBUG | strands_evaluation.instrumentation.agent_plugins | Model response #2 [stop_reason=tool_use]
2026-05-17 16:23:03 | DEBUG | strands_evaluation.instrumentation.agent_plugins | Model response #2 [role=assistant block=1 tool_use] peek_multiple({"max_rows": 20}) [toolUseId=call_vTDfNNOnNjywhASxK1QBQLRI]
2026-05-17 16:23:03 | INFO | strands_evaluation.instrumentation.agent_plugins | Executing: peek_multiple({"max_rows": 20})
2026-05-17 16:23:03 | WARNING | strands_evaluation.instrumentation.agent_plugins | Tool logical error (status=error): {"error": "peek_multiple requires a non-empty `files` list of {dataset_id, file_path} dicts. Use peek_multiple for 2+ files after list_files, or peek_file(dataset_id, file_path) for one file. Example: peek_multiple(files=[{\"dataset_id\": \"census\", \"file_path\": \"files/rows.txt\"}], max_rows=5)"}
2026-05-17 16:23:03 | INFO | strands_evaluation.instrumentation.agent_plugins | 
--- Turn 3 (elapsed: 4.3s) ---
2026-05-17 16:23:15 | DEBUG | strands_evaluation.instrumentation.agent_plugins | Model response #3 [stop_reason=tool_use]
2026-05-17 16:23:15 | DEBUG | strands_evaluation.instrumentation.agent_plugins | Model response #3 [role=assistant block=1 tool_use] list_files({"dataset_ids": ["input/space-track"], "limit": 100}) [toolUseId=call_y5NWI6ZMSo5IXFyYF3c7SxFt]
2026-05-17 16:23:15 | INFO | strands_evaluation.instrumentation.agent_plugins | Executing: list_files({"dataset_ids": ["input/space-track"], "limit": 100})
2026-05-17 16:23:15 | DEBUG | strands_evaluation.instrumentation.agent_plugins | Tool result: {"files": [], "count": 0, "dataset_ids": ["input/space-track"], "by_dataset": {"input/space-track": {"error": "Dataset not found or ambiguous: input/space-track"}}, "truncated": false}
2026-05-17 16:23:15 | INFO | strands_evaluation.instrumentation.agent_plugins | 
--- Turn 4 (elapsed: 16.7s) ---
2026-05-17 16:23:18 | DEBUG | strands_evaluation.instrumentation.agent_plugins | Model response #4 [stop_reason=tool_use]
2026-05-17 16:23:18 | DEBUG | strands_evaluation.instrumentation.agent_plugins | Model response #4 [role=assistant block=1 tool_use] search_value({"query": "58214 starlink 58214 storm quiet \"space-track\""}) [toolUseId=call_z7bn37id6cPHi979hmfCdVkV]
2026-05-17 16:23:18 | INFO | strands_evaluation.instrumentation.agent_plugins | Executing: search_value({"query": "58214 starlink 58214 storm quiet \"space-track\""})
2026-05-17 16:23:19 | DEBUG | strands_evaluation.instrumentation.agent_plugins | Tool result: {"results": [{"dataset_id": "kramabench-astronomy-easy-6", "s3_uri": "s3://sana-kramabench/datagov/kramabench-astronomy-easy-6/files/space-track/58214_quiet.csv", "type": "csv"}, {"dataset_id": "kramabench-astronomy-easy-6", "s3_uri": "s3://sana-kramabench/datagov/kramabench-astronomy-easy-6/files/space-track/58214_storm.csv", "type": "csv"}, {"dataset_id": "kramabench-astronomy-easy-1", "s3_uri": "s3://sana-kramabench/datagov/kramabench-astronomy-easy-1/files/geomag_forecast/0312geomag_forecast.txt", "type": "txt"}, {"dataset_id": "kramabench-astronomy-easy-1", "s3_uri": "s3://sana-kramabench/datagov/kramabench-astronomy-easy-1/files/geomag_forecast/0313geomag_forecast.txt", "type": "txt"}, {"dataset_id": "kramabench-astronomy-easy-1", "s3_uri": "s3://sana-kramabench/datagov/kramabench-astronomy-easy-1/files/geomag_forecast/0309geomag_forecast.txt", "type": "txt"}], "count": 5, "query": "58214 starlink 58214 storm quiet \"space-track\""}
2026-05-17 16:23:19 | INFO | strands_evaluation.instrumentation.agent_plugins | 
--- Turn 5 (elapsed: 20.4s) ---
2026-05-17 16:23:21 | DEBUG | strands_evaluation.instrumentation.agent_plugins | Model response #5 [stop_reason=tool_use]
2026-05-17 16:23:21 | DEBUG | strands_evaluation.instrumentation.agent_plugins | Model response #5 [role=assistant block=1 tool_use] peek_multiple({"files": [{"s3_uri": "s3://sana-kramabench/datagov/kramabench-astronomy-easy-6/files/space-track/58214_quiet.csv"}, {"s3_uri": "s3://sana-kramabench/datagov/kramabench-astronomy-easy-6/files/space-track/58214_storm.csv"}], "max_rows": 20}) [toolUseId=call_eOeYIMXyXnN82v1wokw68Mcp]
2026-05-17 16:23:21 | INFO | strands_evaluation.instrumentation.agent_plugins | Executing: peek_multiple({"files": [{"s3_uri": "s3://sana-kramabench/datagov/kramabench-astronomy-easy-6/files/space-track/58214_quiet.csv"}, {"s3_uri": "s3://sana-kramabench/datagov/kramabench-astronomy-easy-6/files/space-track/58214_storm.csv"}], "max_rows": 20})
2026-05-17 16:23:21 | DEBUG | strands_evaluation.instrumentation.agent_plugins | Tool result: {"results": [{"dataset_id": "kramabench-astronomy-easy-6", "file_path": "files/space-track/58214_quiet.csv", "s3_uri": "s3://sana-kramabench/datagov/kramabench-astronomy-easy-6/files/space-track/58214_quiet.csv", "size_bytes": 5115, "family": "csv", "preview_text": "CCSDS_OMM_VERS,COMMENT,CREATION_DATE,ORIGINATOR,OBJECT_NAME,OBJECT_ID,CENTER_NAME,REF_FRAME,TIME_SYSTEM,MEAN_ELEMENT_THEORY,EPOCH,MEAN_MOTION,ECCENTRICITY,INCLINATION,RA_OF_ASC_NODE,ARG_OF_PERICENTER,MEAN_ANOMALY,EPHEMERIS_TYPE,CLASSIFICATION_TYPE,NORAD_CAT_ID,ELEMENT_SET_NO,REV_AT_EPOCH,BSTAR,MEAN_MOTION_DOT,MEAN_MOTION_DDOT,SEMIMAJOR_AXIS,PERIOD,APOAPSIS,PERIAPSIS,OBJECT_TYPE,RCS_SIZE,COUNTRY_CODE,LAUNCH_DATE,SITE,DECAY_DATE,FILE,GP_ID,TLE_LINE0,TLE_LINE1,TLE_LINE2\n\"2.0\",\"GENERATED VIA SPACE-TRACK.ORG API\",\"2024-05-01T20:24:06\",\"18 SPCS\",\"STARLINK-30805\",\"2023-170J\",\"EARTH\",\"TEME\",\"UTC\",\"SGP4\",\"2024-05-01T10:29:14.898336\",\"15.02550424\",\"0.00017220\",\"43.0038\",\"275.8684\",\"265.8547\",\"94.2099\",\"0\",\"U\",\"58214\",\"999\",\"2840\",\"0.00047506000000\",\"0.00006222\",\"0.0000000000000\",\"6937.172\",\"95.837\",\"560.232\",\"557.843\",\"PAYLOAD\",\"LARGE\",\"US\",\"2023-11-03\",\"AFETR\",\"\",\"4304190\",\"256232108\",\"0 STARLINK-30805\",\"1 58214U 23170J   24122.43697799  .00006222  00000-0  47506-3 0  9995\",\"2 58214  43.0038 275.8684 0001722 265.8547  94.2099 15.02550424 28404\"\n\"2.0\",\"GENERATED VIA SPACE-TRACK.ORG API\",\"2024-05-02T02:46:58\",\"18 SPCS\",\"STARLINK-30805\",\"2023-170J\",\"EARTH\",\"TEME\",\"UTC\",\"SGP4\",\"2024-05-01T16:52:09.772896\",\"15.02544581\",\"0.00014870\",\"43.0034\",\"274.4237\",\"269.1676\",\"90.8996\",\"0\",\"U\",\"58214\",\"999\",\"2844\",\"0.00027920000000\",\"0.00003571\",\"0.0000000000000\",\"6937.190\",\"95.837\",\"560.087\",\"558.024\",\"PAYLOAD\",\"LARGE\",\"US\",\"2023-11-03\",\"AFETR\",\"\",\"4304452\",\"256266706\",\"0 STARLINK-30805\",\"1 58214U 23170J   24122.70289089  .00003571  00000-0  27920-3 0  9996\",\"2 58214  43...
2026-05-17 16:23:21 | INFO | strands_evaluation.instrumentation.agent_plugins | 
